start=new Date('2023-04-07T00:00:00.000Z').valueOf();
sats=[{"LAUNCH_DATE":"2020-02-17","EPOCH":"2023-04-06T18:20:02.304384","RCS_SIZE":"LARGE","MEAN_MOTION_DDOT":"0.0000000000000","EPHEMERIS_TYPE":"0","ECCENTRICITY":"0.00011750","TLE_LINE2":"2 45223  53.0541 120.7146 0001175 112.7209 247.3904 15.06397686174443","MEAN_ANOMALY":"247.3904","CENTER_NAME":"EARTH","MEAN_ELEMENT_THEORY":"SGP4","REF_FRAME":"TEME","PERIOD":"95.592","DECAY_DATE":null,"TLE_LINE1":"1 45223U 20012AX  23096.76391556  .00011254  00000-0  77322-3 0  9990","FILE":"3882049","MEAN_MOTION":"15.06397686","APOAPSIS":"548.034","INCLINATION":"53.0541","MEAN_MOTION_DOT":"0.00011254","SEMIMAJOR_AXIS":"6925.356","RA_OF_ASC_NODE":"120.7146","COUNTRY_CODE":"US","OBJECT_NAME":"STARLINK-1212","SITE":"AFETR","NORAD_CAT_ID":"45223","CLASSIFICATION_TYPE":"U","BSTAR":"0.00077322000000","ARG_OF_PERICENTER":"112.7209","OBJECT_TYPE":"PAYLOAD","GP_ID":"229639491","ELEMENT_SET_NO":"999","PERIAPSIS":"546.407","REV_AT_EPOCH":"17444","TIME_SYSTEM":"UTC","OBJECT_ID":"2020-012AX"},{"OBJECT_TYPE":"PAYLOAD","GP_ID":"229608386","ELEMENT_SET_NO":"999","PERIAPSIS":"546.384","REV_AT_EPOCH":"17434","OBJECT_ID":"2020-012AZ","TIME_SYSTEM":"UTC","APOAPSIS":"548.076","INCLINATION":"53.0517","MEAN_MOTION_DOT":"0.00001292","SEMIMAJOR_AXIS":"6925.365","RA_OF_ASC_NODE":"122.1237","COUNTRY_CODE":"US","SITE":"AFETR","OBJECT_NAME":"STARLINK-1215","CLASSIFICATION_TYPE":"U","NORAD_CAT_ID":"45225","BSTAR":"0.00010560000000","ARG_OF_PERICENTER":"95.8937","MEAN_ELEMENT_THEORY":"SGP4","MEAN_ANOMALY":"264.2191","CENTER_NAME":"EARTH","REF_FRAME":"TEME","PERIOD":"95.592","DECAY_DATE":null,"TLE_LINE1":"1 45225U 20012AZ  23096.45156870  .00001292  00000-0  10560-3 0  9998","FILE":"3881771","MEAN_MOTION":"15.06394622","LAUNCH_DATE":"2020-02-17","EPOCH":"2023-04-06T10:50:15.535680","RCS_SIZE":"LARGE","EPHEMERIS_TYPE":"0","MEAN_MOTION_DDOT":"0.0000000000000","ECCENTRICITY":"0.00012220","TLE_LINE2":"2 45225  53.0517 122.1237 0001222  95.8937 264.2191 15.06394622174349"},{"EPOCH":"2023-04-06T09:25:18.492960","LAUNCH_DATE":"2020-02-17","ECCENTRICITY":"0.00012920","TLE_LINE2":"2 45226  53.0518 122.3848 0001292 120.5130 239.5987 15.06395109173415","MEAN_MOTION_DDOT":"0.0000000000000","EPHEMERIS_TYPE":"0","RCS_SIZE":"LARGE","PERIOD":"95.592","DECAY_DATE":null,"REF_FRAME":"TEME","MEAN_ELEMENT_THEORY":"SGP4","MEAN_ANOMALY":"239.5987","CENTER_NAME":"EARTH","MEAN_MOTION":"15.06395109","FILE":"3881906","TLE_LINE1":"1 45226U 20012BA  23096.39257515 -.00000525  00000-0 -16326-4 0  9997","SITE":"AFETR","OBJECT_NAME":"STARLINK-1217","COUNTRY_CODE":"US","RA_OF_ASC_NODE":"122.3848","MEAN_MOTION_DOT":"-0.00000525","SEMIMAJOR_AXIS":"6925.364","APOAPSIS":"548.123","INCLINATION":"53.0518","ARG_OF_PERICENTER":"120.5130","BSTAR":"-0.00001632600000","CLASSIFICATION_TYPE":"U","NORAD_CAT_ID":"45226","PERIAPSIS":"546.334","GP_ID":"229618163","ELEMENT_SET_NO":"999","OBJECT_TYPE":"PAYLOAD","TIME_SYSTEM":"UTC","OBJECT_ID":"2020-012BA","REV_AT_EPOCH":"17341"},{"TLE_LINE1":"1 45227U 20012BB  23096.54739309  .00007589  00000-0  52779-3 0  9997","MEAN_MOTION":"15.06401362","FILE":"3881771","REF_FRAME":"TEME","MEAN_ELEMENT_THEORY":"SGP4","MEAN_ANOMALY":"281.6164","CENTER_NAME":"EARTH","PERIOD":"95.592","DECAY_DATE":null,"RCS_SIZE":"LARGE","TLE_LINE2":"2 45227  53.0513 121.6932 0001595  78.5004 281.6164 15.06401362174320","ECCENTRICITY":"0.00015950","MEAN_MOTION_DDOT":"0.0000000000000","EPHEMERIS_TYPE":"0","LAUNCH_DATE":"2020-02-17","EPOCH":"2023-04-06T13:08:14.762976","REV_AT_EPOCH":"17432","OBJECT_ID":"2020-012BB","TIME_SYSTEM":"UTC","GP_ID":"229607384","ELEMENT_SET_NO":"999","OBJECT_TYPE":"PAYLOAD","PERIAPSIS":"546.105","BSTAR":"0.00052779000000","CLASSIFICATION_TYPE":"U","NORAD_CAT_ID":"45227","ARG_OF_PERICENTER":"78.5004","MEAN_MOTION_DOT":"0.00007589","SEMIMAJOR_AXIS":"6925.344","APOAPSIS":"548.314","INCLINATION":"53.0513","OBJECT_NAME":"STARLINK-1221","SITE":"AFETR","COUNTRY_CODE":"US","RA_OF_ASC_NODE":"121.6932"},{"OBJECT_TYPE":"PAYLOAD","GP_ID":"229608136","ELEMENT_SET_NO":"999","PERIAPSIS":"546.310","REV_AT_EPOCH":"17429","OBJECT_ID":"2020-012BC","TIME_SYSTEM":"UTC","APOAPSIS":"548.208","INCLINATION":"53.0536","MEAN_MOTION_DOT":"0.00003547","SEMIMAJOR_AXIS":"6925.394","RA_OF_ASC_NODE":"121.6764","COUNTRY_CODE":"US","OBJECT_NAME":"STARLINK-1222","SITE":"AFETR","NORAD_CAT_ID":"45228","CLASSIFICATION_TYPE":"U","BSTAR":"0.00025699000000","ARG_OF_PERICENTER":"95.1074","MEAN_ANOMALY":"265.0071","CENTER_NAME":"EARTH","MEAN_ELEMENT_THEORY":"SGP4","REF_FRAME":"TEME","PERIOD":"95.593","DECAY_DATE":null,"TLE_LINE1":"1 45228U 20012BC  23096.55108175  .00003547  00000-0  25699-3 0  9991","FILE":"3881771","MEAN_MOTION":"15.06385202","LAUNCH_DATE":"2020-02-17","EPOCH":"2023-04-06T13:13:33.463200","RCS_SIZE":"LARGE","EPHEMERIS_TYPE":"0","MEAN_MOTION_DDOT":"0.0000000000000","ECCENTRICITY":"0.00013700","TLE_LINE2":"2 45228  53.0536 121.6764 0001370  95.1074 265.0071 15.06385202174295"},{"OBJECT_ID":"2020-012BD","TIME_SYSTEM":"UTC","REV_AT_EPOCH":"17433","PERIAPSIS":"546.142","OBJECT_TYPE":"PAYLOAD","ELEMENT_SET_NO":"999","GP_ID":"229640229","ARG_OF_PERICENTER":"92.6380","CLASSIFICATION_TYPE":"U","NORAD_CAT_ID":"45229","BSTAR":"0.00026224000000","COUNTRY_CODE":"US","RA_OF_ASC_NODE":"120.6502","SITE":"AFETR","OBJECT_NAME":"STARLINK-1226","INCLINATION":"53.0516","APOAPSIS":"548.340","SEMIMAJOR_AXIS":"6925.376","MEAN_MOTION_DOT":"0.00003626","FILE":"3882049","MEAN_MOTION":"15.06391135","TLE_LINE1":"1 45229U 20012BD  23096.77960750  .00003626  00000-0  26224-3 0  9994","DECAY_DATE":null,"PERIOD":"95.593","MEAN_ELEMENT_THEORY":"SGP4","MEAN_ANOMALY":"267.4791","CENTER_NAME":"EARTH","REF_FRAME":"TEME","MEAN_MOTION_DDOT":"0.0000000000000","EPHEMERIS_TYPE":"0","ECCENTRICITY":"0.00015870","TLE_LINE2":"2 45229  53.0516 120.6502 0001587  92.6380 267.4791 15.06391135174337","RCS_SIZE":"LARGE","EPOCH":"2023-04-06T18:42:38.088000","LAUNCH_DATE":"2020-02-17"},{"TIME_SYSTEM":"UTC","OBJECT_ID":"2020-012BE","REV_AT_EPOCH":"17445","PERIAPSIS":"546.246","OBJECT_TYPE":"PAYLOAD","ELEMENT_SET_NO":"999","GP_ID":"229640979","ARG_OF_PERICENTER":"98.6269","CLASSIFICATION_TYPE":"U","NORAD_CAT_ID":"45230","BSTAR":"0.00062742000000","RA_OF_ASC_NODE":"120.6676","COUNTRY_CODE":"US","SITE":"AFETR","OBJECT_NAME":"STARLINK-1227","INCLINATION":"53.0509","APOAPSIS":"548.253","SEMIMAJOR_AXIS":"6925.385","MEAN_MOTION_DOT":"0.00009073","FILE":"3882049","MEAN_MOTION":"15.06388264","TLE_LINE1":"1 45230U 20012BE  23096.77592733  .00009073  00000-0  62742-3 0  9995","DECAY_DATE":null,"PERIOD":"95.593","MEAN_ANOMALY":"261.4884","MEAN_ELEMENT_THEORY":"SGP4","CENTER_NAME":"EARTH","REF_FRAME":"TEME","EPHEMERIS_TYPE":"0","MEAN_MOTION_DDOT":"0.0000000000000","TLE_LINE2":"2 45230  53.0509 120.6676 0001449  98.6269 261.4884 15.06388264174451","ECCENTRICITY":"0.00014490","RCS_SIZE":"LARGE","EPOCH":"2023-04-06T18:37:20.121312","LAUNCH_DATE":"2020-02-17"},{"LAUNCH_DATE":"2020-02-17","EPOCH":"2023-04-06T09:18:39.392352","RCS_SIZE":"LARGE","TLE_LINE2":"2 45232  53.0512 122.3987 0001437  76.7715 283.3434 15.06387692174381","ECCENTRICITY":"0.00014370","EPHEMERIS_TYPE":"0","MEAN_MOTION_DDOT":"0.0000000000000","REF_FRAME":"TEME","CENTER_NAME":"EARTH","MEAN_ANOMALY":"283.3434","MEAN_ELEMENT_THEORY":"SGP4","PERIOD":"95.593","DECAY_DATE":null,"TLE_LINE1":"1 45232U 20012BG  23096.38795593  .00006572  00000-0  45985-3 0  9994","MEAN_MOTION":"15.06387692","FILE":"3881771","MEAN_MOTION_DOT":"0.00006572","SEMIMAJOR_AXIS":"6925.386","APOAPSIS":"548.246","INCLINATION":"53.0512","SITE":"AFETR","OBJECT_NAME":"STARLINK-1235","RA_OF_ASC_NODE":"122.3987","COUNTRY_CODE":"US","BSTAR":"0.00045985000000","CLASSIFICATION_TYPE":"U","NORAD_CAT_ID":"45232","ARG_OF_PERICENTER":"76.7715","GP_ID":"229606885","ELEMENT_SET_NO":"999","OBJECT_TYPE":"PAYLOAD","PERIAPSIS":"546.256","REV_AT_EPOCH":"17438","TIME_SYSTEM":"UTC","OBJECT_ID":"2020-012BG"},{"GP_ID":"229607636","ELEMENT_SET_NO":"999","OBJECT_TYPE":"PAYLOAD","PERIAPSIS":"546.106","REV_AT_EPOCH":"17410","OBJECT_ID":"2020-012BH","TIME_SYSTEM":"UTC","MEAN_MOTION_DOT":"0.00005501","SEMIMAJOR_AXIS":"6925.385","APOAPSIS":"548.394","INCLINATION":"53.0532","SITE":"AFETR","OBJECT_NAME":"STARLINK-1238","RA_OF_ASC_NODE":"141.9060","COUNTRY_CODE":"US","BSTAR":"0.00038803000000","CLASSIFICATION_TYPE":"U","NORAD_CAT_ID":"45233","ARG_OF_PERICENTER":"73.8240","REF_FRAME":"TEME","MEAN_ELEMENT_THEORY":"SGP4","MEAN_ANOMALY":"286.2930","CENTER_NAME":"EARTH","PERIOD":"95.593","DECAY_DATE":null,"TLE_LINE1":"1 45233U 20012BH  23096.50132476  .00005501  00000-0  38803-3 0  9996","MEAN_MOTION":"15.06388143","FILE":"3881771","LAUNCH_DATE":"2020-02-17","EPOCH":"2023-04-06T12:01:54.459264","RCS_SIZE":"LARGE","TLE_LINE2":"2 45233  53.0532 141.9060 0001652  73.8240 286.2930 15.06388143174108","ECCENTRICITY":"0.00016520","EPHEMERIS_TYPE":"0","MEAN_MOTION_DDOT":"0.0000000000000"},{"TLE_LINE1":"1 45234U 20012BJ  23096.87175633  .00001129  00000-0  94708-4 0  9998","MEAN_MOTION":"15.06392200","FILE":"3882049","REF_FRAME":"TEME","MEAN_ANOMALY":"301.5885","CENTER_NAME":"EARTH","MEAN_ELEMENT_THEORY":"SGP4","PERIOD":"95.593","DECAY_DATE":null,"RCS_SIZE":"LARGE","TLE_LINE2":"2 45234  53.0549 160.2373 0001815  58.5281 301.5885 15.06392200173865","ECCENTRICITY":"0.00018150","MEAN_MOTION_DDOT":"0.0000000000000","EPHEMERIS_TYPE":"0","LAUNCH_DATE":"2020-02-17","EPOCH":"2023-04-06T20:55:19.746912","REV_AT_EPOCH":"17386","TIME_SYSTEM":"UTC","OBJECT_ID":"2020-012BJ","GP_ID":"229639742","ELEMENT_SET_NO":"999","OBJECT_TYPE":"PAYLOAD","PERIAPSIS":"545.981","BSTAR":"0.00009470800000","CLASSIFICATION_TYPE":"U","NORAD_CAT_ID":"45234","ARG_OF_PERICENTER":"58.5281","MEAN_MOTION_DOT":"0.00001129","SEMIMAJOR_AXIS":"6925.372","APOAPSIS":"548.494","INCLINATION":"53.0549","SITE":"AFETR","OBJECT_NAME":"STARLINK-1243","COUNTRY_CODE":"US","RA_OF_ASC_NODE":"160.2373"}];
